NORAD_CAT_ID,OBJECT_NAME,OBJECT_TYPE,EPOCH,MEAN_MOTION,ECCENTRICITY,INCLINATION,RA_OF_ASC_NODE,ARG_OF_PERICENTER,MEAN_ANOMALY,BSTAR,MEAN_MOTION_DOT,MEAN_MOTION_DDOT,TLE_LINE0,TLE_LINE1,TLE_LINE2,SEMIMAJOR_AXIS,PERIOD,APOGEE,PERIGEE,DECAYED
52648.0,STARLINK-3854,PAYLOAD,2023-02-13 23:57:10,15.08849832,0.0001181,53.2129,245.6157,86.3696,273.7431,0.00026805,3.982e-05,0.0,0 STARLINK-3854,1 52648U 22052BC  23044.99803404  .00003982  00000-0  26805-3 0  9992,2 52648  53.2129 245.6157 0001181  86.3696 273.7431 15.08849832 42470,6917.85,95.437,540.532,538.898,0.0
52648.0,STARLINK-3854,PAYLOAD,2023-02-14 07:54:06,15.08838873,0.0001207,53.2125,244.1281,89.5679,270.5452,0.00011157,1.488e-05,0.0,0 STARLINK-3854,1 52648U 22052BC  23045.32923907  .00001488  00000-0  11157-3 0  9994,2 52648  53.2125 244.1281 0001207  89.5679 270.5452 15.08838873 42520,6917.884,95.438,540.584,538.914,0.0
52648.0,STARLINK-3854,PAYLOAD,2023-02-14 15:51:02,15.08837731,0.0001286,53.2126,242.6407,89.3992,270.7147,0.00017631,2.519e-05,0.0,0 STARLINK-3854,1 52648U 22052BC  23045.66044151  .00002519  00000-0  17631-3 0  9995,2 52648  53.2126 242.6407 0001286  89.3992 270.7147 15.08837731 42195,6917.887,95.438,540.642,538.863,0.0
52648.0,STARLINK-3854,PAYLOAD,2023-02-15 10:55:39,15.08842432,0.0001364,53.2121,239.0704,104.0508,256.0636,0.0001212,1.642e-05,0.0,0 STARLINK-3854,1 52648U 22052BC  23046.45531821  .00001642  00000-0  12120-3 0  9992,2 52648  53.2121 239.0704 0001364 104.0508 256.0636 15.08842432 42694,6917.873,95.437,540.682,538.794,0.0
52648.0,STARLINK-3854,PAYLOAD,2023-02-15 12:31:02,15.0884349,0.0001319,53.2122,238.7733,104.022,256.0919,0.00014564,2.031e-05,0.0,0 STARLINK-3854,1 52648U 22052BC  23046.52155754  .00002031  00000-0  14564-3 0  9994,2 52648  53.2122 238.7733 0001319 104.0220 256.0919 15.08843490 42323,6917.87,95.437,540.647,538.822,0.0
52648.0,STARLINK-3854,PAYLOAD,2023-02-15 18:52:34,15.08845473,0.0001326,53.2121,237.5837,102.4627,257.6514,0.0001541,2.166e-05,0.0,0 STARLINK-3854,1 52648U 22052BC  23046.78651607  .00002166  00000-0  15410-3 0  9990,2 52648  53.2121 237.5837 0001326 102.4627 257.6514 15.08845473 42360,6917.864,95.437,540.646,538.811,0.0
52648.0,STARLINK-3854,PAYLOAD,2023-02-16 12:21:49,15.08841328,0.0001584,53.2116,234.3132,108.4468,251.6696,4.1508e-05,3.73e-06,0.0,0 STARLINK-3854,1 52648U 22052BC  23047.51515875  .00000373  00000-0  41508-4 0  9994,2 52648  53.2116 234.3132 0001584 108.4468 251.6696 15.08841328 42856,6917.876,95.437,540.837,538.646,0.0
52648.0,STARLINK-3854,PAYLOAD,2023-02-16 18:43:22,15.08842795,0.0001295,53.2138,233.1243,103.0228,257.0909,0.00010346,1.359e-05,0.0,0 STARLINK-3854,1 52648U 22052BC  23047.78011589  .00001359  00000-0  10346-3 0  9996,2 52648  53.2138 233.1243 0001295 103.0228 257.0909 15.08842795 42513,6917.872,95.437,540.633,538.841,0.0
52648.0,STARLINK-3854,PAYLOAD,2023-02-17 12:12:36,15.08836788,0.0001226,53.2141,229.8537,98.3948,261.7183,4.7157e-05,4.63e-06,0.0,0 STARLINK-3854,1 52648U 22052BC  23048.50875992  .00000463  00000-0  47157-4 0  9999,2 52648  53.2141 229.8537 0001226  98.3948 261.7183 15.08836788 42627,6917.89,95.438,540.603,538.907,0.0
52648.0,STARLINK-3854,PAYLOAD,2023-02-17 18:34:09,15.08837447,0.0001271,53.2139,228.6642,100.8425,259.271,4.0362e-05,3.55e-06,0.0,0 STARLINK-3854,1 52648U 22052BC  23048.77371979  .00000355  00000-0  40362-4 0  9995,2 52648  53.2139 228.6642 0001271 100.8425 259.2710 15.08837447 43045,6917.888,95.438,540.632,538.874,0.0
52648.0,STARLINK-3854,PAYLOAD,2023-02-18 12:03:24,15.0883182,0.0001181,53.214,225.3935,98.4189,261.6937,6.4433e-05,7.38e-06,0.0,0 STARLINK-3854,1 52648U 22052BC  23049.50236344  .00000738  00000-0  64433-4 0  9993,2 52648  53.2140 225.3935 0001181  98.4189 261.6937 15.08831820 42771,6917.905,95.438,540.587,538.953,0.0
52648.0,STARLINK-3854,PAYLOAD,2023-02-19 10:18:48,15.08834845,9.2e-05,53.2138,221.2305,88.722,271.3878,0.00010982,1.46e-05,0.0,0 STARLINK-3854,1 52648U 22052BC  23050.42972243  .00001460  00000-0  10982-3 0  9993,2 52648  53.2138 221.2305 0000920  88.7220 271.3878 15.08834845 43292,6917.896,95.438,540.398,539.125,0.0
52648.0,STARLINK-3854,PAYLOAD,2023-02-19 11:54:11,15.08834514,9.22e-05,53.2138,220.933,88.6817,271.4281,0.0001057,1.395e-05,0.0,0 STARLINK-3854,1 52648U 22052BC  23050.49596289  .00001395  00000-0  10570-3 0  9992,2 52648  53.2138 220.9330 0000922  88.6817 271.4281 15.08834514 42920,6917.897,95.438,540.4,539.124,0.0
52648.0,STARLINK-3854,PAYLOAD,2023-02-20 11:44:59,15.08829563,9.93e-05,53.2144,216.4725,85.741,274.3696,8.1011e-06,-1.59e-06,0.0,0 STARLINK-3854,1 52648U 22052BC  23051.48957234 -.00000159  00000-0  81011-5 0  9991,2 52648  53.2144 216.4725 0000993  85.7410 274.3696 15.08829563 43459,6917.912,95.438,540.464,539.09,0.0
52648.0,STARLINK-3854,PAYLOAD,2023-02-20 21:17:17,15.08837621,0.0001143,53.2148,214.6882,89.9868,270.1255,5.8795e-05,6.48e-06,0.0,0 STARLINK-3854,1 52648U 22052BC  23051.88700621  .00000648  00000-0  58795-4 0  9995,2 52648  53.2148 214.6882 0001143  89.9868 270.1255 15.08837621 43514,6917.888,95.438,540.543,538.962,0.0
52648.0,STARLINK-3854,PAYLOAD,2023-02-21 14:46:31,15.0884485,0.0001306,53.2168,211.4178,101.6321,258.4817,7.0593e-05,8.36e-06,0.0,0 STARLINK-3854,1 52648U 22052BC  23052.61564167  .00000836  00000-0  70593-4 0  9999,2 52648  53.2168 211.4178 0001306 101.6321 258.4817 15.08844850 43241,6917.866,95.437,540.634,538.827,0.0
52648.0,STARLINK-3854,PAYLOAD,2023-02-21 17:57:17,15.08850275,0.0001134,53.2154,210.8223,94.1783,265.9339,9.889e-05,1.287e-05,0.0,0 STARLINK-3854,1 52648U 22052BC  23052.74811723  .00001287  00000-0  98890-4 0  9997,2 52648  53.2154 210.8223 0001134  94.1783 265.9339 15.08850275 43641,6917.849,95.437,540.498,538.929,0.0
52648.0,STARLINK-3854,PAYLOAD,2023-02-22 03:29:36,15.08844813,0.0001204,53.2149,209.039,73.077,287.0354,9.4996e-05,1.225e-05,0.0,0 STARLINK-3854,1 52648U 22052BC  23053.14556092  .00001225  00000-0  94996-4 0  9992,2 52648  53.2149 209.0390 0001204  73.0770 287.0354 15.08844813 43700,6917.866,95.437,540.564,538.898,0.0
52648.0,STARLINK-3854,PAYLOAD,2023-02-22 09:51:10,15.08825545,0.0001386,53.2163,207.8492,86.5953,273.5197,-7.2379e-06,-4.03e-06,0.0,0 STARLINK-3854,1 52648U 22052BC  23053.41053715 -.00000403  00000-0 -72379-5 0  9997,2 52648  53.2163 207.8492 0001386  86.5953 273.5197 15.08825545 43748,6917.925,95.438,540.748,538.831,0.0
52648.0,STARLINK-3854,PAYLOAD,2023-02-22 16:12:42,15.08827377,0.0001285,53.2158,206.6599,85.4268,274.6871,6.5483e-06,-1.84e-06,0.0,0 STARLINK-3854,1 52648U 22052BC  23053.67549692 -.00000184  00000-0  65483-5 0  9992,2 52648  53.2158 206.6599 0001285  85.4268 274.6871 15.08827377 43401,6917.919,95.438,540.673,538.895,0.0
52648.0,STARLINK-3854,PAYLOAD,2023-02-23 03:20:24,15.08834376,0.0001541,53.216,204.5785,86.2335,273.8833,5.3213e-06,-2.03e-06,0.0,0 STARLINK-3854,1 52648U 22052BC  23054.13917456 -.00000203  00000-0  53213-5 0  9991,2 52648  53.2160 204.5785 0001541  86.2335 273.8833 15.08834376 43852,6917.898,95.438,540.829,538.697,0.0
52648.0,STARLINK-3854,PAYLOAD,2023-02-23 09:41:56,15.08844205,0.0001354,53.2157,203.388,90.5025,269.6122,8.8362e-05,1.119e-05,0.0,0 STARLINK-3854,1 52648U 22052BC  23054.40412613  .00001119  00000-0  88362-4 0  9994,2 52648  53.2157 203.3880 0001354  90.5025 269.6122 15.08844205 43897,6917.868,95.437,540.669,538.796,0.0
52648.0,STARLINK-3854,PAYLOAD,2023-02-23 19:14:14,15.08857301,0.0001295,53.2143,201.6033,76.6961,283.4176,0.00028554,4.261e-05,0.0,0 STARLINK-3854,1 52648U 22052BC  23054.80155885  .00004261  00000-0  28554-3 0  9990,2 52648  53.2143 201.6033 0001295  76.6961 283.4176 15.08857301 43952,6917.828,95.436,540.588,538.797,0.0
52648.0,STARLINK-3854,PAYLOAD,2023-02-24 03:11:10,15.08844823,9.21e-05,53.2157,200.1161,74.6879,285.4214,0.00019276,2.782e-05,0.0,0 STARLINK-3854,1 52648U 22052BC  23055.13276441  .00002782  00000-0  19276-3 0  9996,2 52648  53.2157 200.1161 0000921  74.6879 285.4214 15.08844823 44001,6917.866,95.437,540.368,539.094,0.0
52648.0,STARLINK-3854,PAYLOAD,2023-02-24 12:43:30,15.08838441,0.0001486,53.212,198.3313,85.3383,274.7779,0.0001354,1.867e-05,0.0,0 STARLINK-3854,1 52648U 22052BC  23055.53020886  .00001867  00000-0  13540-3 0  9991,2 52648  53.2120 198.3313 0001486  85.3383 274.7779 15.08838441 43683,6917.885,95.438,540.778,538.722,0.0
52648.0,STARLINK-3854,PAYLOAD,2023-02-24 15:54:16,15.08839744,0.0001209,53.2135,197.7357,94.9295,265.1835,0.00014657,2.046e-05,0.0,0 STARLINK-3854,1 52648U 22052BC  23055.66268808  .00002046  00000-0  14657-3 0  9993,2 52648  53.2135 197.7357 0001209  94.9295 265.1835 15.08839744 44080,6917.881,95.438,540.583,538.91,0.0
52648.0,STARLINK-3854,PAYLOAD,2023-02-25 12:34:17,15.08836502,0.0001225,53.2137,193.8714,86.5485,273.5647,-6.3303e-05,-1.295e-05,0.0,0 STARLINK-3854,1 52648U 22052BC  23056.52381089 -.00001295  00000-0 -63303-4 0  9996,2 52648  53.2137 193.8714 0001225  86.5485 273.5647 15.08836502 43837,6917.891,95.438,540.604,538.909,0.0
52648.0,STARLINK-3854,PAYLOAD,2023-02-25 15:45:03,15.08840764,0.0001116,53.2139,193.2761,88.1975,271.9145,-4.7046e-05,-1.036e-05,0.0,0 STARLINK-3854,1 52648U 22052BC  23056.65628847 -.00001036  00000-0 -47046-4 0  9995,2 52648  53.2139 193.2761 0001116  88.1975 271.9145 15.08840764 43858,6917.878,95.438,540.515,538.971,0.0
52648.0,STARLINK-3854,PAYLOAD,2023-02-26 09:14:17,15.08840863,0.0001104,53.2139,190.0046,100.0883,260.0234,0.00029561,4.42e-05,0.0,0 STARLINK-3854,1 52648U 22052BC  23057.38492895  .00004420  00000-0  29561-3 0  9997,2 52648  53.2139 190.0046 0001104 100.0883 260.0234 15.08840863 44341,6917.878,95.438,540.506,538.979,0.0
52648.0,STARLINK-3854,PAYLOAD,2023-02-26 18:46:35,15.08863351,0.0001109,53.2141,188.2216,92.259,267.8529,0.00046608,7.142e-05,0.0,0 STARLINK-3854,1 52648U 22052BC  23057.78235705  .00007142  00000-0  46608-3 0  9991,2 52648  53.2141 188.2216 0001109  92.2590 267.8529 15.08863351 44400,6917.809,95.436,540.441,538.907,0.0
